[{"OBJECT_NAME":"STARLINK-2472","OBJECT_ID":"2021-027AQ","EPOCH":"2026-03-09T14:18:35.064288","MEAN_MOTION":15.30197129,"ECCENTRICITY":0.0001727,"INCLINATION":53.1621,"RA_OF_ASC_NODE":168.6315,"ARG_OF_PERICENTER":59.3925,"MEAN_ANOMALY":300.7246,"EPHEMERIS_TYPE":0,"CLASSIFICATION_TYPE":"U","NORAD_CAT_ID":48130,"ELEMENT_SET_NO":999,"REV_AT_EPOCH":27246,"BSTAR":1.7668e-5,"MEAN_MOTION_DOT":1.64e-6,"MEAN_MOTION_DDOT":0},{"OBJECT_NAME":"BANDWAGON-2 OBJECT D","OBJECT_ID":"2024-247D","EPOCH":"2026-03-09T12:32:33.670752","MEAN_MOTION":15.29076102,"ECCENTRICITY":0.00034883,"INCLINATION":44.9954,"RA_OF_ASC_NODE":115.671,"ARG_OF_PERICENTER":351.1453,"MEAN_ANOMALY":8.9368,"EPHEMERIS_TYPE":0,"CLASSIFICATION_TYPE":"U","NORAD_CAT_ID":62380,"ELEMENT_SET_NO":999,"REV_AT_EPOCH":6773,"BSTAR":0.00040119131,"MEAN_MOTION_DOT":0.00011259,"MEAN_MOTION_DDOT":0}]
